{"type": "FeatureCollection", "features": [ {"type": "Feature", "properties": {"norad_id": 34077, "name": "IRIDIUM 33 DEB", "group": "iridium-33-debris", "lat": 46.12386321975437, "lon": 57.03902579788602, "alt_km": 666.4910355136681, "timestamp": "2025-12-08T17:43:05.321533+00:00", "meta": {"OBJECT_NAME": "IRIDIUM 33 DEB", "OBJECT_ID": "1997-051CL", "EPOCH": "2025-12-08T06:21:27.927648", "MEAN_MOTION": 14.64735886, "ECCENTRICITY": 0.0010653, "INCLINATION": 86.3859, "RA_OF_ASC_NODE": 53.4785, "ARG_OF_PERICENTER": 53.6579, "MEAN_ANOMALY": 18.2931, "EPHEMERIS_TYPE": 0, "CLASSIFICATION_TYPE": "U", "NORAD_CAT_ID": 34077, "ELEMENT_SET_NO": 999, "REV_AT_EPOCH": 88267, "BSTAR": 0.0020419364, "MEAN_MOTION_DOT": 0.00010911, "MEAN_MOTION_DDOT": 0}, "tle": {"line1": "1 34077U 97051CL  25342.26490657  .00010911  00000+0  20419-2 0  9997", "line2": "2 34077  86.3859  53.4785 0010653  53.6579  18.2931 14.64735886882671"}}, "geometry": {"type": "Point", "coordinates": [57.03902579788602, 46.12386321975437]}}, {"type": "Feature", "properties": {"norad_id": 34079, "name": "IRIDIUM 33 DEB", "group": "iridium-33-debris", "lat": 49.896070160271634, "lon": -173.83268179501368, "alt_km": 615.7175986959164, "timestamp": "2025-12-08T17:43:05.321544+00:00", "meta": {"OBJECT_NAME": "IRIDIUM 33 DEB", "OBJECT_ID": "1997-051CN", "EPOCH": "2025-12-08T02:52:02.842176", "MEAN_MOTION": 14.83344707, "ECCENTRICITY": 0.00061828, "INCLINATION": 86.3773, "RA_OF_ASC_NODE": 10.7628, "ARG_OF_PERICENTER": 22.6988, "MEAN_ANOMALY": 44.9869, "EPHEMERIS_TYPE": 0, "CLASSIFICATION_TYPE": "U", "NORAD_CAT_ID": 34079, "ELEMENT_SET_NO": 999, "REV_AT_EPOCH": 88909, "BSTAR": 0.002019445, "MEAN_MOTION_DOT": 0.00016595, "MEAN_MOTION_DDOT": 0}, "tle": {"line1": "1 34079U 97051CN  25342.11947734  .00016595  00000+0  20194-2 0  9990", "line2": "2 34079  86.3773  10.7628 0006182  22.6988  44.9869 14.83344707889090"}}, "geometry": {"type": "Point", "coordinates": [-173.83268179501368, 49.896070160271634]}}, {"type": "Feature", "properties": {"norad_id": 34088, "name": "IRIDIUM 33 DEB", "group": "iridium-33-debris", "lat": 70.56943427195692, "lon": -157.76288392917135, "alt_km": 587.3545480361945, "timestamp": "2025-12-08T17:43:05.321555+00:00", "meta": {"OBJECT_NAME": "IRIDIUM 33 DEB", "OBJECT_ID": "1997-051CX", "EPOCH": "2025-12-08T04:36:21.430944", "MEAN_MOTION": 14.91049632, "ECCENTRICITY": 0.00053822, "INCLINATION": 86.3847, "RA_OF_ASC_NODE": 32.8131, "ARG_OF_PERICENTER": 193.7064, "MEAN_ANOMALY": 224.7024, "EPHEMERIS_TYPE": 0, "CLASSIFICATION_TYPE": "U", "NORAD_CAT_ID": 34088, "ELEMENT_SET_NO": 999, "REV_AT_EPOCH": 88674, "BSTAR": 0.0030374031, "MEAN_MOTION_DOT": 0.00030182, "MEAN_MOTION_DDOT": 0}, "tle": {"line1": "1 34088U 97051CX  25342.19191471  .00030182  00000+0  30374-2 0  9996", "line2": "2 34088  86.3847  32.8131 0005382 193.7064 224.7024 14.91049632886740"}}, "geometry": {"type": "Point", "coordinates": [-157.76288392917135, 70.56943427195692]}}, {"type": "Feature", "properties": {"norad_id": 34091, "name": "IRIDIUM 33 DEB", "group": "iridium-33-debris", "lat": 73.35324271162771, "lon": 81.02189292525274, "alt_km": 631.8106970557747, "timestamp": "2025-12-08T17:43:05.321566+00:00", "meta": {"OBJECT_NAME": "IRIDIUM 33 DEB", "OBJECT_ID": "1997-051DA", "EPOCH": "2025-12-08T06:02:15.684288", "MEAN_MOTION": 14.81287717, "ECCENTRICITY": 0.00331518, "INCLINATION": 86.3415, "RA_OF_ASC_NODE": 68.8884, "ARG_OF_PERICENTER": 309.4292, "MEAN_ANOMALY": 50.3997, "EPHEMERIS_TYPE": 0, "CLASSIFICATION_TYPE": "U", "NORAD_CAT_ID": 34091, "ELEMENT_SET_NO": 999, "REV_AT_EPOCH": 87800, "BSTAR": 0.0057102774, "MEAN_MOTION_DOT": 0.00045211, "MEAN_MOTION_DDOT": 0}, "tle": {"line1": "1 34091U 97051DA  25342.25157042  .00045211  00000+0  57103-2 0  9991", "line2": "2 34091  86.3415  68.8884 0033151 309.4292  50.3997 14.81287717878002"}}, "geometry": {"type": "Point", "coordinates": [81.02189292525274, 73.35324271162771]}}, {"type": "Feature", "properties": {"norad_id": 34097, "name": "IRIDIUM 33 DEB", "group": "iridium-33-debris", "lat": -84.23633081658916, "lon": -38.009383073627134, "alt_km": 794.1599522405013, "timestamp": "2025-12-08T17:43:05.321577+00:00", "meta": {"OBJECT_NAME": "IRIDIUM 33 DEB", "OBJECT_ID": "1997-051DG", "EPOCH": "2025-12-08T01:22:31.444896", "MEAN_MOTION": 14.3472041, "ECCENTRICITY": 0.00831282, "INCLINATION": 86.2, "RA_OF_ASC_NODE": 3.4741, "ARG_OF_PERICENTER": 17.4272, "MEAN_ANOMALY": 342.9745, "EPHEMERIS_TYPE": 0, "CLASSIFICATION_TYPE": "U", "NORAD_CAT_ID": 34097, "ELEMENT_SET_NO": 999, "REV_AT_EPOCH": 87052, "BSTAR": 0.0017150483, "MEAN_MOTION_DOT": 5.068e-05, "MEAN_MOTION_DDOT": 0}, "tle": {"line1": "1 34097U 97051DG  25342.05730839  .00005068  00000+0  17150-2 0  9990", "line2": "2 34097  86.2000   3.4741 0083128  17.4272 342.9745 14.34720410870527"}}, "geometry": {"type": "Point", "coordinates": [-38.009383073627134, -84.23633081658916]}}, {"type": "Feature", "properties": {"norad_id": 34145, "name": "IRIDIUM 33 DEB", "group": "iridium-33-debris", "lat": 75.61741394703517, "lon": -10.715898085132611, "alt_km": 709.7588345226495, "timestamp": "2025-12-08T17:43:05.321588+00:00", "meta": {"OBJECT_NAME": "IRIDIUM 33 DEB", "OBJECT_ID": "1997-051DY", "EPOCH": "2025-12-07T23:03:04.751424", "MEAN_MOTION": 14.42235871, "ECCENTRICITY": 0.0055559, "INCLINATION": 86.2113, "RA_OF_ASC_NODE": 334.6546, "ARG_OF_PERICENTER": 109.0134, "MEAN_ANOMALY": 251.7097, "EPHEMERIS_TYPE": 0, "CLASSIFICATION_TYPE": "U", "NORAD_CAT_ID": 34145, "ELEMENT_SET_NO": 999, "REV_AT_EPOCH": 87569, "BSTAR": 0.0013920574, "MEAN_MOTION_DOT": 4.693e-05, "MEAN_MOTION_DDOT": 0}, "tle": {"line1": "1 34145U 97051DY  25341.96047166  .00004693  00000+0  13921-2 0  9992", "line2": "2 34145  86.2113 334.6546 0055559 109.0134 251.7097 14.42235871875691"}}, "geometry": {"type": "Point", "coordinates": [-10.715898085132611, 75.61741394703517]}}, {"type": "Feature", "properties": {"norad_id": 34146, "name": "IRIDIUM 33 DEB", "group": "iridium-33-debris", "lat": -22.90073362834544, "lon": -10.005441411233052, "alt_km": 737.8173998517786, "timestamp": "2025-12-08T17:43:05.321600+00:00", "meta": {"OBJECT_NAME": "IRIDIUM 33 DEB", "OBJECT_ID": "1997-051DZ", "EPOCH": "2025-12-08T01:30:02.867616", "MEAN_MOTION": 14.4899865, "ECCENTRICITY": 0.00251477, "INCLINATION": 86.2833, "RA_OF_ASC_NODE": 351.8664, "ARG_OF_PERICENTER": 238.296, "MEAN_ANOMALY": 175.9948, "EPHEMERIS_TYPE": 0, "CLASSIFICATION_TYPE": "U", "NORAD_CAT_ID": 34146, "ELEMENT_SET_NO": 999, "REV_AT_EPOCH": 88039, "BSTAR": 0.0012815499, "MEAN_MOTION_DOT": 4.897e-05, "MEAN_MOTION_DDOT": 0}, "tle": {"line1": "1 34146U 97051DZ  25342.06253319  .00004897  00000+0  12815-2 0  9991", "line2": "2 34146  86.2833 351.8664 0025147 238.2960 175.9948 14.48998650880397"}}, "geometry": {"type": "Point", "coordinates": [-10.005441411233052, -22.90073362834544]}}, {"type": "Feature", "properties": {"norad_id": 34159, "name": "IRIDIUM 33 DEB", "group": "iridium-33-debris", "lat": -23.114614014098265, "lon": -128.4916298249565, "alt_km": 771.9241899743038, "timestamp": "2025-12-08T17:43:05.321611+00:00", "meta": {"OBJECT_NAME": "IRIDIUM 33 DEB", "OBJECT_ID": "1997-051EN", "EPOCH": "2025-12-08T05:05:17.238912", "MEAN_MOTION": 14.3847703, "ECCENTRICITY": 0.00260823, "INCLINATION": 86.3515, "RA_OF_ASC_NODE": 50.172, "ARG_OF_PERICENTER": 303.8092, "MEAN_ANOMALY": 56.0623, "EPHEMERIS_TYPE": 0, "CLASSIFICATION_TYPE": "U", "NORAD_CAT_ID": 34159, "ELEMENT_SET_NO": 999, "REV_AT_EPOCH": 87894, "BSTAR": 0.00069541726, "MEAN_MOTION_DOT": 2.15e-05, "MEAN_MOTION_DDOT": 0}, "tle": {"line1": "1 34159U 97051EN  25342.21200508  .00002150  00000+0  69542-3 0  9994", "line2": "2 34159  86.3515  50.1720 0026082 303.8092  56.0623 14.38477030878945"}}, "geometry": {"type": "Point", "coordinates": [-128.4916298249565, -23.114614014098265]}}, {"type": "Feature", "properties": {"norad_id": 34350, "name": "IRIDIUM 33 DEB", "group": "iridium-33-debris", "lat": 46.90173716481234, "lon": -179.3914541446191, "alt_km": 721.3654220593153, "timestamp": "2025-12-08T17:43:05.321621+00:00", "meta": {"OBJECT_NAME": "IRIDIUM 33 DEB", "OBJECT_ID": "1997-051ES", "EPOCH": "2025-12-08T02:24:05.432832", "MEAN_MOTION": 14.45370234, "ECCENTRICITY": 0.00223505, "INCLINATION": 86.3279, "RA_OF_ASC_NODE": 4.8207, "ARG_OF_PERICENTER": 149.7301, "MEAN_ANOMALY": 264.616, "EPHEMERIS_TYPE": 0, "CLASSIFICATION_TYPE": "U", "NORAD_CAT_ID": 34350, "ELEMENT_SET_NO": 999, "REV_AT_EPOCH": 88226, "BSTAR": 0.00049103911, "MEAN_MOTION_DOT": 1.751e-05, "MEAN_MOTION_DDOT": 0}, "tle": {"line1": "1 34350U 97051ES  25342.10006288  .00001751  00000+0  49104-3 0  9992", "line2": "2 34350  86.3279   4.8207 0022350 149.7301 264.6160 14.45370234882264"}}, "geometry": {"type": "Point", "coordinates": [-179.3914541446191, 46.90173716481234]}}, {"type": "Feature", "properties": {"norad_id": 34366, "name": "IRIDIUM 33 DEB", "group": "iridium-33-debris", "lat": -23.58258061628036, "lon": 49.46542936854086, "alt_km": 733.8467673959976, "timestamp": "2025-12-08T17:43:05.321632+00:00", "meta": {"OBJECT_NAME": "IRIDIUM 33 DEB", "OBJECT_ID": "1997-051FJ", "EPOCH": "2025-12-08T06:35:46.010976", "MEAN_MOTION": 14.53996874, "ECCENTRICITY": 0.00221505, "INCLINATION": 86.3695, "RA_OF_ASC_NODE": 51.2551, "ARG_OF_PERICENTER": 153.8237, "MEAN_ANOMALY": 278.5233, "EPHEMERIS_TYPE": 0, "CLASSIFICATION_TYPE": "U", "NORAD_CAT_ID": 34366, "ELEMENT_SET_NO": 999, "REV_AT_EPOCH": 88117, "BSTAR": 0.0015254916, "MEAN_MOTION_DOT": 6.47e-05, "MEAN_MOTION_DDOT": 0}, "tle": {"line1": "1 34366U 97051FJ  25342.27483809  .00006470  00000+0  15255-2 0  9997", "line2": "2 34366  86.3695  51.2551 0022150 153.8237 278.5233 14.53996874881170"}}, "geometry": {"type": "Point", "coordinates": [49.46542936854086, -23.58258061628036]}}]}